ONEWEB-0271             
1 48989U 21060Y   25365.21756899 -.00000018  00000+0 -79833-4 0  9999
2 48989  87.9044 262.2175 0001605  65.6321 294.4977 13.16593449217560
ONEWEB-0272             
1 48990U 21060Z   25365.23972426  .00000143  00000+0  33943-3 0  9997
2 48990  87.9037 262.2269 0001739  69.4253 290.7064 13.16592675217513
ONEWEB-0273             
1 48991U 21060AA  25365.64188493  .00000105  00000+0  23981-3 0  9995
2 48991  87.9043 262.1433 0001498  67.2742 292.8547 13.16593722217540
ONEWEB-0274             
1 48992U 21060AB  25365.28722777 -.00000066  00000+0 -20663-3 0  9997
2 48992  87.9033 262.2349 0001927  74.2522 285.8821 13.16593141217539
ONEWEB-0275             
1 48993U 21060AC  25365.65612918  .00000012  00000+0 -10462-5 0  9992
2 48993  87.9045 262.1333 0001618  71.1638 288.9668 13.16593379217510
ONEWEB-0276             
1 48994U 21060AD  25365.61337763  .00000059  00000+0  12147-3 0  9991
2 48994  87.9042 262.1418 0001360  70.4332 289.6945 13.16592811217526
ONEWEB-0277             
1 48995U 21060AE  25365.62604823  .00000129  00000+0  30442-3 0  9993
2 48995  87.9030 262.1615 0001586  72.9255 287.2049 13.16595040217519
ONEWEB-0278             
1 48996U 21060AF  25365.61655077  .00000609  00000+0  15606-2 0  9997
2 48996  87.9043 262.1380 0001258  82.0885 278.0388 13.16590052217646
ONEWEB-0279             
1 48997U 21060AG  25365.62446833  .00000144  00000+0  34340-3 0  9998
2 48997  87.9044 262.1342 0001774  63.5361 296.5951 13.16594863217579
ONEWEB-0280             
1 48998U 21060AH  25365.25950956  .00000008  00000+0 -12093-4 0  9996
2 48998  87.9043 262.2125 0001203  67.5030 292.6228 13.16596300217463
ONEWEB-0281             
1 48999U 21060AJ  25365.64505321  .00000100  00000+0  22823-3 0  9995
2 48999  87.9044 262.1310 0001664  75.4893 284.6423 13.16593521217589
ONEWEB-0282             
1 49000U 21060AK  25365.14314570 -.00000038  00000+0 -13193-3 0  9990
2 49000  87.9042 262.2418 0001494  69.0924 291.0366 13.16593195217491
ONEWEB-0283             
1 49001U 21060AL  25365.66404990 -.00000036  00000+0 -12687-3 0  9999
2 49001  87.9044 262.1386 0001613  68.2938 291.8364 13.16593677217576
ONEWEB-0284             
1 49002U 21060AM  25365.65771082 -.00000057  00000+0 -18383-3 0  9990
2 49002  87.9043 262.1291 0001173  75.5015 284.6246 13.16593170217554
ONEWEB-0285             
1 49075U 21075A   25365.56648490  .00000037  00000+0  67079-4 0  9995
2 49075  87.8925  23.9488 0001712  91.7031 268.4294 13.12444216213225
ONEWEB-0286             
1 49076U 21075B   25365.54928481 -.00000395  00000+0 -11337-2 0  9998
2 49076  87.8920  23.9846 0001904  97.4205 262.7140 13.12442330212577
ONEWEB-0287             
1 49077U 21075C   25365.57552032 -.00000002  00000+0 -39542-4 0  9992
2 49077  87.9103  39.1894 0002012 108.1800 251.9551 13.17647278211552
ONEWEB-0288             
1 49078U 21075D   25365.60195817  .00000147  00000+0  37441-3 0  9994
2 49078  87.8923  23.9369 0001662  95.8217 264.3101 13.12443069213204
ONEWEB-0289             
1 49079U 21075E   25365.61421153  .00000009  00000+0 -10251-4 0  9990
2 49079  87.9089  39.1951 0001345  98.0195 262.1089 13.17648993212133
ONEWEB-0290             
1 49080U 21075F   25365.58734957  .00000060  00000+0  12169-3 0  9992
2 49080  87.9102  39.1643 0001235  85.9106 274.2167 13.17648557211545
ONEWEB-0291             
1 49081U 21075G   25365.57216461  .00000017  00000+0  96640-5 0  9997
2 49081  87.9102  39.1741 0001641 109.5465 250.5844 13.17649580211532
ONEWEB-0293             
1 49082U 21075H   25365.52154277 -.00000002  00000+0 -38132-4 0  9996
2 49082  87.9093  39.2028 0001634  97.1792 262.9525 13.17649310211554
ONEWEB-0294             
1 49083U 21075J   25365.60873218 -.00000155  00000+0 -46609-3 0  9995
2 49083  87.8926  23.9375 0001381  92.6856 267.4431 13.12442739212596
ONEWEB-0295             
1 49084U 21075K   25365.59662116 -.00000075  00000+0 -22693-3 0  9995
2 49084  87.9093  39.1924 0001781 107.8071 252.3255 13.17649786211529
ONEWEB-0296             
1 49085U 21075L   25365.58840725  .00000335  00000+0  89647-3 0  9998
2 49085  87.8924  23.9451 0001685 105.3659 254.7656 13.12443769212593
ONEWEB-0297             
1 49086U 21075M   25365.61888954 -.00000365  00000+0 -10497-2 0  9990
2 49086  87.8914  23.9697 0001743  95.7981 264.3346 13.12442389213209
ONEWEB-0298             
1 49087U 21075N   25365.60098251  .00000046  00000+0  85399-4 0  9992
2 49087  87.9089  39.1881 0001940  96.5663 263.5690 13.17647570211556
ONEWEB-0299             
1 49088U 21075P   25365.60253854  .00000031  00000+0  47254-4 0  9997
2 49088  87.9101  39.1514 0001834 101.0519 259.0819 13.17648812211530
ONEWEB-0300             
1 49089U 21075Q   25365.61127668 -.00000139  00000+0 -42079-3 0  9992
2 49089  87.8926  23.9329 0001998  88.8648 271.2709 13.12442901213224
ONEWEB-0301             
1 49090U 21075R   25365.59518466  .00000296  00000+0  78757-3 0  9995
2 49090  87.8922  23.9378 0002058  86.7618 273.3746 13.12443342212580
ONEWEB-0302             
1 49091U 21075S   25365.58161906  .00000427  00000+0  11516-2 0  9993
2 49091  87.8925  23.9484 0001397  97.3252 262.8036 13.12442404212560
ONEWEB-0304             
1 49092U 21075T   25365.57720716 -.00000036  00000+0 -12594-3 0  9999
2 49092  87.9099  39.1869 0001816 100.4971 259.6365 13.17647362211507
ONEWEB-0305             
1 49093U 21075U   25365.57047786 -.00000023  00000+0 -92687-4 0  9997
2 49093  87.9102  39.1662 0001909 108.5839 251.5500 13.17648465211539
ONEWEB-0308             
1 49094U 21075V   25365.57483271  .00000431  00000+0  11632-2 0  9991
2 49094  87.8926  23.9429 0001741  91.3622 268.7706 13.12442734212577
ONEWEB-0309             
1 49095U 21075W   25365.57385137  .00000025  00000+0  32109-4 0  9997
2 49095  87.9101  39.1811 0001350 100.2541 259.8743 13.17649264211500
ONEWEB-0310             
1 49096U 21075X   25365.59010192  .00000413  00000+0  11132-2 0  9998
2 49096  87.8918  23.9753 0001697  91.0674 269.0649 13.12444246213205
ONEWEB-0311             
1 49097U 21075Y   25365.58058317 -.00000023  00000+0 -92851-4 0  9997
2 49097  87.9100  39.1753 0002032 105.0319 255.1038 13.17650591211556
ONEWEB-0312             
1 49098U 21075Z   25365.59578994  .00000064  00000+0  13207-3 0  9997
2 49098  87.9090  39.1963 0001686 108.3680 251.7636 13.17648853211531
ONEWEB-0313             
1 49099U 21075AA  25365.60071667 -.00000007  00000+0 -50171-4 0  9996
2 49099  87.9088  39.2024 0001805  99.5881 260.5455 13.17648692211522
ONEWEB-0314             
1 49100U 21075AB  25365.56710278 -.00000017  00000+0 -77631-4 0  9993
2 49100  87.9103  39.1644 0001719 109.0552 251.0766 13.17649229211499
ONEWEB-0315             
1 49101U 21075AC  25365.56298046 -.00000077  00000+0 -24880-3 0  9991
2 49101  87.8929  23.9309 0002088  99.1649 260.9716 13.12443033213182
ONEWEB-0316             
1 49102U 21075AD  25365.54767844  .00000043  00000+0  75779-4 0  9992
2 49102  87.9172   8.7555 0001800  92.2537 267.8801 13.18687689215118
ONEWEB-0317             
1 49103U 21075AE  25365.48374842 -.00000144  00000+0 -43846-3 0  9991
2 49103  87.8928  23.9661 0001151  72.2229 287.9025 13.11885647213193
ONEWEB-0318             
1 49104U 21075AF  25365.54437895  .00000014  00000+0  24694-5 0  9993
2 49104  87.9173   8.7439 0001886  97.0394 263.0953 13.18687223215075
ONEWEB-0319             
1 49105U 21075AG  25365.58225958 -.00000004  00000+0 -44615-4 0  9998
2 49105  87.9092  39.1933 0002312 103.2323 256.9066 13.17647823211534
ONEWEB-0323             
1 49106U 21075AH  25365.54773514 -.00000363  00000+0 -10431-2 0  9996
2 49106  87.8927  23.9390 0002161 108.9075 251.2288 13.12442937212569
ONEWEB-0329             
1 49107U 21075AJ  25365.59072777  .00000003  00000+0 -25899-4 0  9991
2 49107  87.9088  39.1928 0001786 101.1145 259.0187 13.17649093211515
ONEWEB-0330             
1 49108U 21075AK  25365.59155735 -.00000002  00000+0 -38452-4 0  9997
2 49108  87.9092  39.1991 0001594 101.6283 258.5028 13.17647674211551
ONEWEB-0292             
1 49186U 21083A   25365.49867157  .00000391  00000+0  10349-2 0  9991
2 49186  87.8973 353.5834 0001812  90.3877 269.7460 13.13469070208917
ONEWEB-0303             
1 49187U 21083B   25365.54108567  .00000042  00000+0  74005-4 0  9995
2 49187  87.9174   8.7462 0001836  94.1713 265.9629 13.18687292207888
ONEWEB-0306             
1 49188U 21083C   25365.53118394  .00000074  00000+0  15418-3 0  9991
2 49188  87.9174   8.7324 0001579  83.3306 276.8005 13.18687445207922
ONEWEB-0307             
1 49189U 21083D   25365.49274246  .00000311  00000+0  81580-3 0  9993
2 49189  87.8969 353.5754 0001711  86.8189 273.3136 13.13471851208911
ONEWEB-0320             
1 49190U 21083E   25365.53860824  .00000025  00000+0  30347-4 0  9991
2 49190  87.9168   8.7592 0001716  90.1911 269.9418 13.18687827207886
ONEWEB-0321             
1 49191U 21083F   25365.39964729  .00000060  00000+0  11615-3 0  9990
2 49191  87.9221 307.9006 0001633  68.0739 292.0568 13.20772471214683
ONEWEB-0322             
1 49192U 21083G   25365.48851719  .00000226  00000+0  58425-3 0  9999
2 49192  87.8974 353.5792 0001708  69.7843 290.3470 13.13469312208904
ONEWEB-0324             
1 49193U 21083H   25365.52458860  .00000025  00000+0  30895-4 0  9994
2 49193  87.9172   8.7405 0001604  93.2350 266.8965 13.18686895207904
ONEWEB-0325             
1 49194U 21083J   25365.52787870 -.00000080  00000+0 -23655-3 0  9999
2 49194  87.9173   8.7590 0001759  88.0542 272.0792 13.18686828207911
ONEWEB-0326             
1 49195U 21083K   25365.54287852  .00000091  00000+0  19870-3 0  9991
2 49195  87.9171   8.7430 0002015  94.4370 265.6993 13.18686794207901
ONEWEB-0327             
1 49196U 21083L   25365.54259039  .00000047  00000+0  86739-4 0  9998
2 49196  87.9164   8.7609 0002093  92.3194 267.8178 13.18687278207928
